NAVSTAR 48 (USA 151)    
1 26407U 00040A   26204.24182777  .00000087  00000+0  00000+0 0  9998
2 26407  54.8477 213.7301 0120300 302.8447  93.5884  2.00558036190676
NAVSTAR 51 (USA 166)    
1 27663U 03005A   26203.02122582  .00000081  00000+0  00000+0 0  9994
2 27663  54.8783 213.5847 0148435  53.1965 318.1453  2.00558761172015
NAVSTAR 54 (USA 177)    
1 28190U 04009A   26203.10079940 -.00000041  00000+0  00000+0 0  9990
2 28190  54.8010 274.2748 0117386 174.6364  46.5669  2.00553594163640
NAVSTAR 56 (USA 180)    
1 28474U 04045A   26203.72416769 -.00000112  00000+0  00000+0 0  9996
2 28474  55.1131 323.4649 0170333 317.2409  59.2092  2.00557577159142
NAVSTAR 57 (USA 183)    
1 28874U 05038A   26202.81402546 -.00000037  00000+0  00000+0 0  9996
2 28874  54.8504 271.7781 0128324 296.5020 107.5834  2.00563382152537
INMARSAT 4-F2           
1 28899U 05044A   26203.99917199 -.00000260  00000+0  00000+0 0  9993
2 28899   5.1417  43.6878 0003003  62.1762 338.0694  1.00271776 75884
NAVSTAR 58 (USA 190)    
1 29486U 06042A   26203.90730398  .00000012  00000+0  00000+0 0  9994
2 29486  54.7132 149.9207 0107400  55.3867 317.1838  2.00567878145117
NAVSTAR 59 (USA 192)    
1 29601U 06052A   26203.81820194  .00000087  00000+0  00000+0 0  9990
2 29601  54.9317 212.5938 0084743  91.0163 269.9892  2.00560215144123
NAVSTAR 60 (USA 196)    
1 32260U 07047A   26203.62553203 -.00000073  00000+0  00000+0 0  9999
2 32260  54.1215  78.6047 0168028  88.1689 273.8107  2.00553740137522
COSMOS 2433 [GLONASS-M] 
1 32275U 07052A   26203.10996669 -.00000090  00000+0  00000+0 0  9990
2 32275  65.5549 314.7579 0003748 204.3382 155.6620  2.13104093145801
COSMOS 2432 [GLONASS-M] 
1 32276U 07052B   26202.71222580 -.00000089  00000+0  00000+0 0  9999
2 32276  65.5711 314.9000 0007375 320.6767  37.9431  2.13103052145810
NAVSTAR 61 (USA 199)    
1 32384U 07062A   26203.44714995 -.00000034  00000+0  00000+0 0  9997
2 32384  55.0037 272.7334 0036068 168.2064 191.1622  2.00562126136219
COSMOS 2434 [GLONASS-M] 
1 32393U 07065A   26201.60474382  .00000086  00000+0  00000+0 0  9995
2 32393  64.3202 190.7886 0001234 328.2500 206.6629  2.13101204144484
COSMOS 2436 [GLONASS-M] 
1 32395U 07065C   26204.25276242  .00000091  00000+0  00000+0 0  9992
2 32395  64.3287 190.7719 0017298 353.7357 184.8008  2.13100091144496
NAVSTAR 62 (USA 201)    
1 32711U 08012A   26202.53637968  .00000024  00000+0  00000+0 0  9998
2 32711  54.5004 148.5525 0211735 248.2108 109.5034  2.00573366134448
NAVSTAR 64 (USA 206)    
1 35752U 09043A   26203.99302076 -.00000080  00000+0  00000+0 0  9994
2 35752  56.2328  26.0469 0053641  84.7301 254.0703  2.00552527124072
COSMOS 2456 [GLONASS-M] 
1 36111U 09070A   26204.23253628 -.00000046  00000+0  00000+0 0  9992
2 36111  65.0330  69.7429 0003408 344.4113 204.7963  2.13103544129199
COSMOS 2457 [GLONASS-M] 
1 36112U 09070B   26203.13698076 -.00000052  00000+0  00000+0 0  9998
2 36112  65.0178  69.6233 0004394 122.7671  73.0536  2.13101025129176
COSMOS 2460 [GLONASS-M] 
1 36402U 10007C   26202.40772837 -.00000088  00000+0  00000+0 0  9998
2 36402  65.3983 313.3083 0001852 154.3387 203.9833  2.13101549127452
NAVSTAR 65 (USA 213)    
1 36585U 10022A   26203.35751557  .00000085  00000+0  00000+0 0  9994
2 36585  54.2681 207.1453 0126901  66.1639 294.0229  2.00564201118296
BEIDOU-2 IGSO-1         
1 36828U 10036A   26203.83497221 -.00000090  00000+0  00000+0 0  9994
2 36828  54.3079 162.6381 0059059 225.2794 320.0279  1.00261993 58459
BEIDOU-2 G4             
1 37210U 10057A   26204.34618936 -.00000111  00000+0  00000+0 0  9992
2 37210   3.7347  68.7195 0005248 183.0899 333.8521  1.00273299 57653
BEIDOU-2 IGSO-2         
1 37256U 10068A   26202.87819282 -.00000198  00000+0  00000+0 0  9992
2 37256  47.4828 271.3972 0057045 214.5351 238.1175  1.00271863 57143
BEIDOU-2 IGSO-3         
1 37384U 11013A   26202.49436278 -.00000172  00000+0  00000+0 0  9995
2 37384  62.4558  39.8259 0035881 183.5212 359.9880  1.00259347 56004
GSAT-8                  
1 37605U 11022A   26204.12421045  .00000087  00000+0  00000+0 0  9993
2 37605   2.2212  81.3863 0002532 149.9343 169.3306  1.00272344 53577
BEIDOU-2 IGSO-4         
1 37763U 11038A   26203.99265681 -.00000035  00000+0  00000+0 0  9995
2 37763  54.6048 165.3543 0160072 231.4898 355.6942  1.00278691 55001
GSAT0101 (GALILEO-PFM)  
1 37846U 11060A   26203.04348625 -.00000107  00000+0  00000+0 0  9998
2 37846  56.9816 340.8168 0002031  64.0635 295.9520  1.70475789 91713
GSAT0102 (GALILEO-FM2)  
1 37847U 11060B   26202.38421657 -.00000107  00000+0  00000+0 0  9992
2 37847  56.9829 340.8353 0001995   5.2866 355.7737  1.70476023 91712
COSMOS 2476 [GLONASS-M] 
1 37867U 11064A   26204.29366720 -.00000045  00000+0  00000+0 0  9990
2 37867  65.2908  71.6526 0021995 235.2718 269.1539  2.13103627114538
COSMOS 2477 [GLONASS-M] 
1 37868U 11064B   26203.63180419 -.00000050  00000+0  00000+0 0  9993
2 37868  65.2968  71.7547 0019088 236.1337 300.7696  2.13102887114517
COSMOS 2475 [GLONASS-M] 
1 37869U 11064C   26204.16432013 -.00000046  00000+0  00000+0 0  9998
2 37869  65.3041  71.7587 0024508 250.2945 290.1042  2.13101721114535
